STARLINK-1434           
1 45712U 20035BH  26068.24137979  .00054112  00000+0  20295-2 0  9995
2 45712  53.0547  22.1128 0005343  88.0400 272.1210 15.26724568319325
STARLINK-36374          
1 67417U 26005P   26068.48251012  .00023580  00000+0  86364-3 0  9990
2 67417  42.9945 239.2498 0000668 289.9710  70.1069 15.27580778  8666
